ONEWEB-0012             
1 44057U 19010A   23280.92798392  .00000106  00000+0  24484-3 0  9996
2 44057  87.9030  64.4976 0002597  80.5468 279.5956 13.16593230222180
ONEWEB-0010             
1 44058U 19010B   23280.87733432 -.00000010  00000+0 -60311-4 0  9991
2 44058  87.9026  64.4916 0001789  71.6343 288.4983 13.16594762222253
ONEWEB-0008             
1 44059U 19010C   23280.90265407 -.00000418  00000+0 -11273-2 0  9991
2 44059  87.9032  64.4815 0001743 102.0562 258.0764 13.16596119222349
ONEWEB-0007             
1 44060U 19010D   23280.91752171  .00000023  00000+0  26490-4 0  9992
2 44060  87.8942  94.9560 0002108  82.2112 277.9258 13.15546259222090
ONEWEB-0006             
1 44061U 19010E   23280.90484253 -.00000085  00000+0 -25971-3 0  9997
2 44061  87.8933  94.9590 0001865  78.0428 282.0912 13.15549547222149
ONEWEB-0011             
1 44062U 19010F   23280.89230474 -.00000057  00000+0 -18520-3 0  9991
2 44062  87.8937  94.9635 0001751  93.0882 267.0449 13.15551712222133
ONEWEB-0013             
1 45131U 20008A   23280.87797387 -.00004100  00000+0 -11962-1 0  9991
2 45131  87.9133 250.2118 0002755  92.3258 267.8184 13.09354636177386
ONEWEB-0017             
1 45132U 20008B   23280.89736532 -.00000673  00000+0 -19630-2 0  9991
2 45132  87.8879 231.5334 0001945  72.8971 287.2369 13.10373546179173
