<?xml version="1.0" encoding="UTF-8"?>
<ndm xmlns:xsi="http://www.w3.org/2001/XMLSchema-instance" xsi:noNamespaceSchemaLocation="https://sanaregistry.org/r/ndmxml_unqualified/ndmxml-2.0.0-master-2.0.xsd">
<omm id="CCSDS_OMM_VERS" version="2.0">
<header><CREATION_DATE/><ORIGINATOR/></header><body><segment><metadata><OBJECT_NAME>ONEWEB-0012</OBJECT_NAME><OBJECT_ID>2019-010A</OBJECT_ID><CENTER_NAME>EARTH</CENTER_NAME><REF_FRAME>TEME</REF_FRAME><TIME_SYSTEM>UTC</TIME_SYSTEM><MEAN_ELEMENT_THEORY>SGP4</MEAN_ELEMENT_THEORY></metadata><data><meanElements><EPOCH>2023-10-07T22:16:17.810688</EPOCH><MEAN_MOTION>13.16593230</MEAN_MOTION><ECCENTRICITY>.0002597</ECCENTRICITY><INCLINATION>87.9030</INCLINATION><RA_OF_ASC_NODE>64.4976</RA_OF_ASC_NODE><ARG_OF_PERICENTER>80.5468</ARG_OF_PERICENTER><MEAN_ANOMALY>279.5956</MEAN_ANOMALY></meanElements><tleParameters><EPHEMERIS_TYPE>0</EPHEMERIS_TYPE><CLASSIFICATION_TYPE>U</CLASSIFICATION_TYPE><NORAD_CAT_ID>44057</NORAD_CAT_ID><ELEMENT_SET_NO>999</ELEMENT_SET_NO><REV_AT_EPOCH>22218</REV_AT_EPOCH><BSTAR>.24484E-3</BSTAR><MEAN_MOTION_DOT>.106E-5</MEAN_MOTION_DOT><MEAN_MOTION_DDOT>0</MEAN_MOTION_DDOT></tleParameters></data></segment></body></omm>
<omm id="CCSDS_OMM_VERS" version="2.0">
<header><CREATION_DATE/><ORIGINATOR/></header><body><segment><metadata><OBJECT_NAME>ONEWEB-0010</OBJECT_NAME><OBJECT_ID>2019-010B</OBJECT_ID><CENTER_NAME>EARTH</CENTER_NAME><REF_FRAME>TEME</REF_FRAME><TIME_SYSTEM>UTC</TIME_SYSTEM><MEAN_ELEMENT_THEORY>SGP4</MEAN_ELEMENT_THEORY></metadata><data><meanElements><EPOCH>2023-10-07T21:03:21.685248</EPOCH><MEAN_MOTION>13.16594762</MEAN_MOTION><ECCENTRICITY>.0001789</ECCENTRICITY><INCLINATION>87.9026</INCLINATION><RA_OF_ASC_NODE>64.4916</RA_OF_ASC_NODE><ARG_OF_PERICENTER>71.6343</ARG_OF_PERICENTER><MEAN_ANOMALY>288.4983</MEAN_ANOMALY></meanElements><tleParameters><EPHEMERIS_TYPE>0</EPHEMERIS_TYPE><CLASSIFICATION_TYPE>U</CLASSIFICATION_TYPE><NORAD_CAT_ID>44058</NORAD_CAT_ID><ELEMENT_SET_NO>999</ELEMENT_SET_NO><REV_AT_EPOCH>22225</REV_AT_EPOCH><BSTAR>-.60311E-4</BSTAR><MEAN_MOTION_DOT>-.1E-6</MEAN_MOTION_DOT><MEAN_MOTION_DDOT>0</MEAN_MOTION_DDOT></tleParameters></data></segment></body></omm>
<omm id="CCSDS_OMM_VERS" version="2.0">
<header><CREATION_DATE/><ORIGINATOR/></header><body><segment><metadata><OBJECT_NAME>ONEWEB-0008</OBJECT_NAME><OBJECT_ID>2019-010C</OBJECT_ID><CENTER_NAME>EARTH</CENTER_NAME><REF_FRAME>TEME</REF_FRAME><TIME_SYSTEM>UTC</TIME_SYSTEM><MEAN_ELEMENT_THEORY>SGP4</MEAN_ELEMENT_THEORY></metadata><data><meanElements><EPOCH>2023-10-07T21:39:49.311648</EPOCH><MEAN_MOTION>13.16596119</MEAN_MOTION><ECCENTRICITY>.0001743</ECCENTRICITY><INCLINATION>87.9032</INCLINATION><RA_OF_ASC_NODE>64.4815</RA_OF_ASC_NODE><ARG_OF_PERICENTER>102.0562</ARG_OF_PERICENTER><MEAN_ANOMALY>258.0764</MEAN_ANOMALY></meanElements><tleParameters><EPHEMERIS_TYPE>0</EPHEMERIS_TYPE><CLASSIFICATION_TYPE>U</CLASSIFICATION_TYPE><NORAD_CAT_ID>44059</NORAD_CAT_ID><ELEMENT_SET_NO>999</ELEMENT_SET_NO><REV_AT_EPOCH>22234</REV_AT_EPOCH><BSTAR>-.11273E-2</BSTAR><MEAN_MOTION_DOT>-.418E-5</MEAN_MOTION_DOT><MEAN_MOTION_DDOT>0</MEAN_MOTION_DDOT></tleParameters></data></segment></body></omm>
<omm id="CCSDS_OMM_VERS" version="2.0">
<header><CREATION_DATE/><ORIGINATOR/></header><body><segment><metadata><OBJECT_NAME>ONEWEB-0007</OBJECT_NAME><OBJECT_ID>2019-010D</OBJECT_ID><CENTER_NAME>EARTH</CENTER_NAME><REF_FRAME>TEME</REF_FRAME><TIME_SYSTEM>UTC</TIME_SYSTEM><MEAN_ELEMENT_THEORY>SGP4</MEAN_ELEMENT_THEORY></metadata><data><meanElements><EPOCH>2023-10-07T22:01:13.875744</EPOCH><MEAN_MOTION>13.15546259</MEAN_MOTION><ECCENTRICITY>.0002108</ECCENTRICITY><INCLINATION>87.8942</INCLINATION><RA_OF_ASC_NODE>94.9560</RA_OF_ASC_NODE><ARG_OF_PERICENTER>82.2112</ARG_OF_PERICENTER><MEAN_ANOMALY>277.9258</MEAN_ANOMALY></meanElements><tleParameters><EPHEMERIS_TYPE>0</EPHEMERIS_TYPE><CLASSIFICATION_TYPE>U</CLASSIFICATION_TYPE><NORAD_CAT_ID>44060</NORAD_CAT_ID><ELEMENT_SET_NO>999</ELEMENT_SET_NO><REV_AT_EPOCH>22209</REV_AT_EPOCH><BSTAR>.2649E-4</BSTAR><MEAN_MOTION_DOT>.23E-6</MEAN_MOTION_DOT><MEAN_MOTION_DDOT>0</MEAN_MOTION_DDOT></tleParameters></data></segment></body></omm>
<omm id="CCSDS_OMM_VERS" version="2.0">
<header><CREATION_DATE/><ORIGINATOR/></header><body><segment><metadata><OBJECT_NAME>ONEWEB-0006</OBJECT_NAME><OBJECT_ID>2019-010E</OBJECT_ID><CENTER_NAME>EARTH</CENTER_NAME><REF_FRAME>TEME</REF_FRAME><TIME_SYSTEM>UTC</TIME_SYSTEM><MEAN_ELEMENT_THEORY>SGP4</MEAN_ELEMENT_THEORY></metadata><data><meanElements><EPOCH>2023-10-07T21:42:58.394592</EPOCH><MEAN_MOTION>13.15549547</MEAN_MOTION><ECCENTRICITY>.0001865</ECCENTRICITY><INCLINATION>87.8933</INCLINATION><RA_OF_ASC_NODE>94.9590</RA_OF_ASC_NODE><ARG_OF_PERICENTER>78.0428</ARG_OF_PERICENTER><MEAN_ANOMALY>282.0912</MEAN_ANOMALY></meanElements><tleParameters><EPHEMERIS_TYPE>0</EPHEMERIS_TYPE><CLASSIFICATION_TYPE>U</CLASSIFICATION_TYPE><NORAD_CAT_ID>44061</NORAD_CAT_ID><ELEMENT_SET_NO>999</ELEMENT_SET_NO><REV_AT_EPOCH>22214</REV_AT_EPOCH><BSTAR>-.25971E-3</BSTAR><MEAN_MOTION_DOT>-.85E-6</MEAN_MOTION_DOT><MEAN_MOTION_DDOT>0</MEAN_MOTION_DDOT></tleParameters></data></segment></body></omm>
<omm id="CCSDS_OMM_VERS" version="2.0">
<header><CREATION_DATE/><ORIGINATOR/></header><body><segment><metadata><OBJECT_NAME>ONEWEB-0011</OBJECT_NAME><OBJECT_ID>2019-010F</OBJECT_ID><CENTER_NAME>EARTH</CENTER_NAME><REF_FRAME>TEME</REF_FRAME><TIME_SYSTEM>UTC</TIME_SYSTEM><MEAN_ELEMENT_THEORY>SGP4</MEAN_ELEMENT_THEORY></metadata><data><meanElements><EPOCH>2023-10-07T21:24:55.129536</EPOCH><MEAN_MOTION>13.15551712</MEAN_MOTION><ECCENTRICITY>.0001751</ECCENTRICITY><INCLINATION>87.8937</INCLINATION><RA_OF_ASC_NODE>94.9635</RA_OF_ASC_NODE><ARG_OF_PERICENTER>93.0882</ARG_OF_PERICENTER><MEAN_ANOMALY>267.0449</MEAN_ANOMALY></meanElements><tleParameters><EPHEMERIS_TYPE>0</EPHEMERIS_TYPE><CLASSIFICATION_TYPE>U</CLASSIFICATION_TYPE><NORAD_CAT_ID>44062</NORAD_CAT_ID><ELEMENT_SET_NO>999</ELEMENT_SET_NO><REV_AT_EPOCH>22213</REV_AT_EPOCH><BSTAR>-.1852E-3</BSTAR><MEAN_MOTION_DOT>-.57E-6</MEAN_MOTION_DOT><MEAN_MOTION_DDOT>0</MEAN_MOTION_DDOT></tleParameters></data></segment></body></omm>
<omm id="CCSDS_OMM_VERS" version="2.0">
<header><CREATION_DATE/><ORIGINATOR/></header><body><segment><metadata><OBJECT_NAME>ONEWEB-0013</OBJECT_NAME><OBJECT_ID>2020-008A</OBJECT_ID><CENTER_NAME>EARTH</CENTER_NAME><REF_FRAME>TEME</REF_FRAME><TIME_SYSTEM>UTC</TIME_SYSTEM><MEAN_ELEMENT_THEORY>SGP4</MEAN_ELEMENT_THEORY></metadata><data><meanElements><EPOCH>2023-10-07T21:04:16.942368</EPOCH><MEAN_MOTION>13.09354636</MEAN_MOTION><ECCENTRICITY>.0002755</ECCENTRICITY><INCLINATION>87.9133</INCLINATION><RA_OF_ASC_NODE>250.2118</RA_OF_ASC_NODE><ARG_OF_PERICENTER>92.3258</ARG_OF_PERICENTER><MEAN_ANOMALY>267.8184</MEAN_ANOMALY></meanElements><tleParameters><EPHEMERIS_TYPE>0</EPHEMERIS_TYPE><CLASSIFICATION_TYPE>U</CLASSIFICATION_TYPE><NORAD_CAT_ID>45131</NORAD_CAT_ID><ELEMENT_SET_NO>999</ELEMENT_SET_NO><REV_AT_EPOCH>17738</REV_AT_EPOCH><BSTAR>-.11962E-1</BSTAR><MEAN_MOTION_DOT>-.41E-4</MEAN_MOTION_DOT><MEAN_MOTION_DDOT>0</MEAN_MOTION_DDOT></tleParameters></data></segment></body></omm>
<omm id="CCSDS_OMM_VERS" version="2.0">
<header><CREATION_DATE/><ORIGINATOR/></header><body><segment><metadata><OBJECT_NAME>ONEWEB-0017</OBJECT_NAME><OBJECT_ID>2020-008B</OBJECT_ID><CENTER_NAME>EARTH</CENTER_NAME><REF_FRAME>TEME</REF_FRAME><TIME_SYSTEM>UTC</TIME_SYSTEM><MEAN_ELEMENT_THEORY>SGP4</MEAN_ELEMENT_THEORY></metadata><data><meanElements><EPOCH>2023-10-07T21:32:12.363648</EPOCH><MEAN_MOTION>13.10373546</MEAN_MOTION><ECCENTRICITY>.0001945</ECCENTRICITY><INCLINATION>87.8879</INCLINATION><RA_OF_ASC_NODE>231.5334</RA_OF_ASC_NODE><ARG_OF_PERICENTER>72.8971</ARG_OF_PERICENTER><MEAN_ANOMALY>287.2369</MEAN_ANOMALY></meanElements><tleParameters><EPHEMERIS_TYPE>0</EPHEMERIS_TYPE><CLASSIFICATION_TYPE>U</CLASSIFICATION_TYPE><NORAD_CAT_ID>45132</NORAD_CAT_ID><ELEMENT_SET_NO>999</ELEMENT_SET_NO><REV_AT_EPOCH>17917</REV_AT_EPOCH><BSTAR>-.1963E-2</BSTAR><MEAN_MOTION_DOT>-.673E-5</MEAN_MOTION_DOT><MEAN_MOTION_DDOT>0</MEAN_MOTION_DDOT></tleParameters></data></segment></body></omm>

</ndm>
